*******************************************************************************
Ephemeris / WWW_USER Fri Mar  7 10:33:23 2025 Pasadena, USA      / Horizons    
*******************************************************************************
Target body name: (2017 SN16)                     {source: JPL#20}
Center body name: Earth (399)                     {source: DE441}
Center-site name: Mauna Kea
*******************************************************************************
Start time      : A.D. 2019-Jan-08 04:08:00.0000 UT      
Stop  time      : A.D. 2019-Jan-08 16:48:00.0000 UT      
Step-size       : 1 minutes
*******************************************************************************
Target pole/equ : undefined
Target radii    : undefined                                                    
Center geodetic : 204.5278, 19.8260847, 4.21024   {E-lon(deg),Lat(deg),Alt(km)}
Center cylindric: 204.5278, 6006.35451, 2151.0229 {E-lon(deg),Dxy(km),Dz(km)}
Center pole/equ : ITRF93                          {East-longitude positive}
Center radii    : 6378.137, 6378.137, 6356.752 km {Equator_a, b, pole_c}       
Target primary  : Sun
Vis. interferer : MOON (R_eq= 1737.400) km        {source: DE441}
Rel. light bend : Sun                             {source: DE441}
Rel. lght bnd GM: 1.3271E+11 km^3/s^2                                          
Small-body perts: Yes                             {source: SB441-N16}
Atmos refraction: NO (AIRLESS)
RA format       : HMS
Time format     : CAL 
Calendar mode   : Mixed Julian/Gregorian
RTS-only print  : NO       
EOP file        : eop.250306.p250602                                           
EOP coverage    : DATA-BASED 1962-JAN-20 TO 2025-MAR-06. PREDICTS-> 2025-JUN-01
Units conversion: 1 au= 149597870.700 km, c= 299792.458 km/s, 1 day= 86400.0 s 
Table cut-offs 1: Elevation (-90.0deg=NO ),Airmass (>38.000=NO), Daylight (YES)
Table cut-offs 2: Solar elongation (  0.0,180.0=NO ),Local Hour Angle( 0.0=NO )
Table cut-offs 3: RA/DEC angular rate (     0.0=NO )                           
*******************************************************************************
Initial IAU76/J2000 heliocentric ecliptic osculating elements (au, days, deg.):
  EPOCH=  2458305.5 ! 2018-Jul-06.00 (TDB)         Residual RMS= .23751        
   EC= .1454884975659386   QR= .8682464985612274   TP= 2458145.5722438502      
   OM= 2.759719470837934   W=  137.1017088998531   IN= 13.38264682844635       
  Equivalent ICRF heliocentric cartesian coordinates (au, au/d):
   X= 5.756755401261899E-01  Y=-7.953424559592890E-01  Z=-6.031561894536019E-01
  VX= 1.332076113263395E-02 VY= 5.454663564585547E-03 VZ= 3.896229736425836E-03
Asteroid physical parameters (km, seconds, rotational period in hours):        
   GM= n.a.                RAD= n.a.               ROTPER= n.a.                
   H= 23.34                G= .150                 B-V= n.a.                   
                           ALBEDO= n.a.            STYP= n.a.                  
*******************************************************************************
 Date__(UT)__HR:MN     R.A._________(ICRF)_________DEC
******************************************************
$$SOE
 2019-Jan-08 12:20     19 38 02.044718 +37 38 06.56083
 2019-Jan-08 12:21     19 38 01.975558 +37 38 06.08808
 2019-Jan-08 12:22     19 38 01.906376 +37 38 05.61566
 2019-Jan-08 12:23     19 38 01.837171 +37 38 05.14358
 2019-Jan-08 12:24     19 38 01.767943 +37 38 04.67182
 2019-Jan-08 12:25     19 38 01.698692 +37 38 04.20039
 2019-Jan-08 12:26     19 38 01.629417 +37 38 03.72929
 2019-Jan-08 12:27     19 38 01.560120 +37 38 03.25852
 2019-Jan-08 12:28     19 38 01.490798 +37 38 02.78807
 2019-Jan-08 12:29     19 38 01.421452 +37 38 02.31795
 2019-Jan-08 12:30     19 38 01.352083 +37 38 01.84816
 2019-Jan-08 12:31     19 38 01.282689 +37 38 01.37869
 2019-Jan-08 12:32     19 38 01.213270 +37 38 00.90954
 2019-Jan-08 12:33     19 38 01.143827 +37 38 00.44072
 2019-Jan-08 12:34     19 38 01.074358 +37 37 59.97222
 2019-Jan-08 12:35     19 38 01.004864 +37 37 59.50404
 2019-Jan-08 12:36     19 38 00.935345 +37 37 59.03618
 2019-Jan-08 12:37     19 38 00.865799 +37 37 58.56864
 2019-Jan-08 12:38     19 38 00.796228 +37 37 58.10142
 2019-Jan-08 12:39     19 38 00.726631 +37 37 57.63452
 2019-Jan-08 12:40     19 38 00.657007 +37 37 57.16794
 2019-Jan-08 12:41     19 38 00.587357 +37 37 56.70167
 2019-Jan-08 12:42     19 38 00.517680 +37 37 56.23572
 2019-Jan-08 12:43     19 38 00.447976 +37 37 55.77008
 2019-Jan-08 12:44     19 38 00.378245 +37 37 55.30476
 2019-Jan-08 12:45     19 38 00.308486 +37 37 54.83975
 2019-Jan-08 12:46     19 38 00.238699 +37 37 54.37505
 2019-Jan-08 12:47     19 38 00.168885 +37 37 53.91067
 2019-Jan-08 12:48     19 38 00.099042 +37 37 53.44659
 2019-Jan-08 12:49     19 38 00.029171 +37 37 52.98283
 2019-Jan-08 12:50     19 37 59.959272 +37 37 52.51937
 2019-Jan-08 12:51     19 37 59.889343 +37 37 52.05622
 2019-Jan-08 12:52     19 37 59.819386 +37 37 51.59338
 2019-Jan-08 12:53     19 37 59.749400 +37 37 51.13085
 2019-Jan-08 12:54     19 37 59.679384 +37 37 50.66862
 2019-Jan-08 12:55     19 37 59.609338 +37 37 50.20670
 2019-Jan-08 12:56     19 37 59.539263 +37 37 49.74507
 2019-Jan-08 12:57     19 37 59.469158 +37 37 49.28376
 2019-Jan-08 12:58     19 37 59.399022 +37 37 48.82274
 2019-Jan-08 12:59     19 37 59.328856 +37 37 48.36202
 2019-Jan-08 13:00     19 37 59.258660 +37 37 47.90161
 2019-Jan-08 13:01     19 37 59.188432 +37 37 47.44149
 2019-Jan-08 13:02     19 37 59.118173 +37 37 46.98167
 2019-Jan-08 13:03     19 37 59.047883 +37 37 46.52215
 2019-Jan-08 13:04     19 37 58.977562 +37 37 46.06292
 2019-Jan-08 13:05     19 37 58.907209 +37 37 45.60399
 2019-Jan-08 13:06     19 37 58.836824 +37 37 45.14535
 2019-Jan-08 13:07     19 37 58.766407 +37 37 44.68701
 2019-Jan-08 13:08     19 37 58.695957 +37 37 44.22895
 2019-Jan-08 13:09     19 37 58.625475 +37 37 43.77119
 2019-Jan-08 13:10     19 37 58.554961 +37 37 43.31372
 2019-Jan-08 13:11     19 37 58.484413 +37 37 42.85653
 2019-Jan-08 13:12     19 37 58.413833 +37 37 42.39964
 2019-Jan-08 13:13     19 37 58.343219 +37 37 41.94303
 2019-Jan-08 13:14     19 37 58.272571 +37 37 41.48671
 2019-Jan-08 13:15     19 37 58.201890 +37 37 41.03067
 2019-Jan-08 13:16     19 37 58.131175 +37 37 40.57491
 2019-Jan-08 13:17     19 37 58.060425 +37 37 40.11944
 2019-Jan-08 13:18     19 37 57.989642 +37 37 39.66425
 2019-Jan-08 13:19     19 37 57.918824 +37 37 39.20934
 2019-Jan-08 13:20     19 37 57.847971 +37 37 38.75471
 2019-Jan-08 13:21     19 37 57.777083 +37 37 38.30036
 2019-Jan-08 13:22     19 37 57.706160 +37 37 37.84628
 2019-Jan-08 13:23     19 37 57.635202 +37 37 37.39248
 2019-Jan-08 13:24     19 37 57.564208 +37 37 36.93896
 2019-Jan-08 13:25     19 37 57.493179 +37 37 36.48571
 2019-Jan-08 13:26     19 37 57.422114 +37 37 36.03273
 2019-Jan-08 13:27     19 37 57.351013 +37 37 35.58003
 2019-Jan-08 13:28     19 37 57.279875 +37 37 35.12759
 2019-Jan-08 13:29     19 37 57.208701 +37 37 34.67542
 2019-Jan-08 13:30     19 37 57.137491 +37 37 34.22353
 2019-Jan-08 13:31     19 37 57.066244 +37 37 33.77190
 2019-Jan-08 13:32     19 37 56.994959 +37 37 33.32053
 2019-Jan-08 13:33     19 37 56.923638 +37 37 32.86943
 2019-Jan-08 13:34     19 37 56.852279 +37 37 32.41860
 2019-Jan-08 13:35     19 37 56.780882 +37 37 31.96802
 2019-Jan-08 13:36     19 37 56.709448 +37 37 31.51771
 2019-Jan-08 13:37     19 37 56.637976 +37 37 31.06766
 2019-Jan-08 13:38     19 37 56.566465 +37 37 30.61787
 2019-Jan-08 13:39     19 37 56.494917 +37 37 30.16833
 2019-Jan-08 13:40     19 37 56.423329 +37 37 29.71905
 2019-Jan-08 13:41     19 37 56.351704 +37 37 29.27003
 2019-Jan-08 13:42     19 37 56.280039 +37 37 28.82126
 2019-Jan-08 13:43     19 37 56.208335 +37 37 28.37274
 2019-Jan-08 13:44     19 37 56.136592 +37 37 27.92448
 2019-Jan-08 13:45     19 37 56.064810 +37 37 27.47646
 2019-Jan-08 13:46     19 37 55.992988 +37 37 27.02870
 2019-Jan-08 13:47     19 37 55.921126 +37 37 26.58118
 2019-Jan-08 13:48     19 37 55.849225 +37 37 26.13391
 2019-Jan-08 13:49     19 37 55.777283 +37 37 25.68689
 2019-Jan-08 13:50     19 37 55.705301 +37 37 25.24011
 2019-Jan-08 13:51     19 37 55.633279 +37 37 24.79357
 2019-Jan-08 13:52     19 37 55.561216 +37 37 24.34727
 2019-Jan-08 13:53     19 37 55.489112 +37 37 23.90122
 2019-Jan-08 13:54     19 37 55.416967 +37 37 23.45540
 2019-Jan-08 13:55     19 37 55.344781 +37 37 23.00982
 2019-Jan-08 13:56     19 37 55.272554 +37 37 22.56448
 2019-Jan-08 13:57     19 37 55.200286 +37 37 22.11938
 2019-Jan-08 13:58     19 37 55.127975 +37 37 21.67450
 2019-Jan-08 13:59     19 37 55.055623 +37 37 21.22986
 2019-Jan-08 14:00     19 37 54.983229 +37 37 20.78545
 2019-Jan-08 14:01     19 37 54.910793 +37 37 20.34128
 2019-Jan-08 14:02     19 37 54.838314 +37 37 19.89733
 2019-Jan-08 14:03     19 37 54.765793 +37 37 19.45360
 2019-Jan-08 14:04     19 37 54.693229 +37 37 19.01011
 2019-Jan-08 14:05     19 37 54.620623 +37 37 18.56684
 2019-Jan-08 14:06     19 37 54.547973 +37 37 18.12379
 2019-Jan-08 14:07     19 37 54.475280 +37 37 17.68096
 2019-Jan-08 14:08     19 37 54.402544 +37 37 17.23836
 2019-Jan-08 14:09     19 37 54.329765 +37 37 16.79597
 2019-Jan-08 14:10     19 37 54.256942 +37 37 16.35380
 2019-Jan-08 14:11     19 37 54.184075 +37 37 15.91185
 2019-Jan-08 14:12     19 37 54.111164 +37 37 15.47011
 2019-Jan-08 14:13     19 37 54.038210 +37 37 15.02859
 2019-Jan-08 14:14     19 37 53.965211 +37 37 14.58728
 2019-Jan-08 14:15     19 37 53.892167 +37 37 14.14618
 2019-Jan-08 14:16     19 37 53.819079 +37 37 13.70529
 2019-Jan-08 14:17     19 37 53.745946 +37 37 13.26461
 2019-Jan-08 14:18     19 37 53.672769 +37 37 12.82414
 2019-Jan-08 14:19     19 37 53.599546 +37 37 12.38387
 2019-Jan-08 14:20     19 37 53.526278 +37 37 11.94381
 2019-Jan-08 14:21     19 37 53.452965 +37 37 11.50395
 2019-Jan-08 14:22     19 37 53.379607 +37 37 11.06428
